IRIDIUM 106             
1 41917U 17003A   24176.57270689  .00000309  00000+0  10331-3 0  9999
2 41917  86.3970  30.5008 0002564  93.5753 266.5737 14.34220768389634
IRIDIUM 103             
1 41918U 17003B   24176.62979364  .00000019  00000+0 -34984-6 0  9994
2 41918  86.3968  30.3786 0001759  95.4214 264.7183 14.34217642389666
IRIDIUM 109             
1 41919U 17003C   24176.56636764  .00000136  00000+0  41476-4 0  9993
2 41919  86.3971  30.4528 0001911  82.1259 278.0154 14.34218253389629
IRIDIUM 102             
1 41920U 17003D   24176.60442439 -.00000021  00000+0 -14514-4 0  9992
2 41920  86.3967  30.3757 0002101  81.3544 278.7889 14.34217334389710
IRIDIUM 105             
1 41921U 17003E   24176.57518649  .00000343  00000+0  11549-3 0  9995
2 41921  86.3977 358.8263 0002057  92.4333 267.7098 14.34226747391565
IRIDIUM 104             
1 41922U 17003F   24176.61712700  .00000306  00000+0  10234-3 0  9994
2 41922  86.3970  30.4022 0001767  81.4871 278.6525 14.34216513389706
IRIDIUM 114             
1 41923U 17003G   24176.62345215  .00000033  00000+0  48620-5 0  9998
2 41923  86.3970  30.3854 0002387  90.8094 269.3376 14.34217877389681
IRIDIUM 108             
1 41924U 17003H   24176.58197265  .00000211  00000+0  68448-4 0  9991
2 41924  86.3972 358.7476 0002396  91.6937 268.4533 14.34218363391539
